LEMUR-2-ANDIS           
1 42838U 17042P   26068.55941107  .00023598  00000+0  79875-3 0  9998
2 42838  97.3659 249.7950 0009101   4.3248 355.8070 15.30557934473198
STARLINK-31054          
1 58619U 23203B   26068.06150238  .00000057  00000+0  11595-4 0  9992
2 58619  43.0061  70.7851 0001116 265.1004  94.9720 15.27568374123465
